$$SOE
2459580.500000000, A.D. 2022-Jan-01 00:00:00.0000, -2.148034281576943E+07, -2.821387105591732E+08, 1.315624845553267E+07,
2459587.500000000, A.D. 2022-Jan-08 00:00:00.0000, -9.421832102194866E+06, -2.835403904228182E+08, 7.861420509146452E+06,
2459594.500000000, A.D. 2022-Jan-15 00:00:00.0000, 2.656725748917836E+06, -2.843400430753353E+08, 2.549888597544625E+06,
2459601.500000000, A.D. 2022-Jan-22 00:00:00.0000, 1.472972528296708E+07, -2.845395159342564E+08, -2.767037919997334E+06,
2459608.500000000, A.D. 2022-Jan-29 00:00:00.0000, 2.677187696201027E+07, -2.841419806443883E+08, -8.078171093988523E+06,
2459615.500000000, A.D. 2022-Feb-05 00:00:00.0000, 3.875826264063609E+07, -2.831518950922726E+08, -1.337247016138376E+07,
2459622.500000000, A.D. 2022-Feb-12 00:00:00.0000, 5.066438956921264E+07, -2.815749637153699E+08, -1.863906603620122E+07,
2459629.500000000, A.D. 2022-Feb-19 00:00:00.0000, 6.246624154591263E+07, -2.794180941328855E+08, -2.386728416963349E+07,
2459636.500000000, A.D. 2022-Feb-26 00:00:00.0000, 7.414032588507560E+07, -2.766893512036142E+08, -2.904666570473225E+07,
2459643.500000000, A.D. 2022-Mar-05 00:00:00.0000, 8.566371637167107E+07, -2.733979094946465E+08, -3.416698699131152E+07,
2459650.500000000, A.D. 2022-Mar-12 00:00:00.0000, 9.701409246194269E+07, -2.695540045769733E+08, -3.921827750035614E+07,
2459657.500000000, A.D. 2022-Mar-19 00:00:00.0000, 1.081697748630564E+08, -2.651688834496219E+08, -4.419083616694275E+07,
2459664.500000000, A.D. 2022-Mar-26 00:00:00.0000, 1.191097575985165E+08, -2.602547544030481E+08, -4.907524619816586E+07,
2459671.500000000, A.D. 2022-Apr-02 00:00:00.0000, 1.298137367361641E+08, -2.548247366602034E+08, -5.386238839928754E+07,
2459678.500000000, A.D. 2022-Apr-09 00:00:00.0000, 1.402621361800917E+08, -2.488928100576358E+08, -5.854345309422262E+07,
2459685.500000000, A.D. 2022-Apr-16 00:00:00.0000, 1.504361310237337E+08, -2.424737643616187E+08, -6.310995067925160E+07,
2459692.500000000, A.D. 2022-Apr-23 00:00:00.0000, 1.603176673427789E+08, -2.355831473583603E+08, -6.755372067000501E+07,
2459699.500000000, A.D. 2022-Apr-30 00:00:00.0000, 1.698894767118934E+08, -2.282372141583448E+08, -7.186693932202430E+07,
2459706.500000000, A.D. 2022-May-07 00:00:00.0000, 1.791350886678172E+08, -2.204528798582721E+08, -7.604212633782689E+07,
2459713.500000000, A.D. 2022-May-14 00:00:00.0000, 1.880388426699238E+08, -2.122476726734838E+08, -8.007215061125883E+07,
2459720.500000000, A.D. 2022-May-21 00:00:00.0000, 1.965858976856541E+08, -2.036396869087162E+08, -8.395023482819052E+07,
2459727.500000000, A.D. 2022-May-28 00:00:00.0000, 2.047622390836481E+08, -1.946475368217214E+08, -8.766995901976684E+07,
2459734.500000000, A.D. 2022-Jun-04 00:00:00.0000, 2.125546832862635E+08, -1.852903117656344E+08, -9.122526318350232E+07,
2459741.500000000, A.D. 2022-Jun-11 00:00:00.0000, 2.199508805099582E+08, -1.755875326724602E+08, -9.461044906037220E+07,
2459748.500000000, A.D. 2022-Jun-18 00:00:00.0000, 2.269393158095591E+08, -1.655591099255365E+08, -9.782018115335160E+07,
2459755.500000000, A.D. 2022-Jun-25 00:00:00.0000, 2.335093086149527E+08, -1.552253027043954E+08, -1.008494870725309E+08,
2459762.500000000, A.D. 2022-Jul-02 00:00:00.0000, 2.396510110365391E+08, -1.446066798963003E+08, -1.036937572927932E+08,
2459769.500000000, A.D. 2022-Jul-09 00:00:00.0000, 2.453554054677461E+08, -1.337240824022039E+08, -1.063487444054097E+08,
2459776.500000000, A.D. 2022-Jul-16 00:00:00.0000, 2.506143015707983E+08, -1.225985857478434E+08, -1.088105618311158E+08,
2459783.500000000, A.D. 2022-Jul-23 00:00:00.0000, 2.554203305815750E+08, -1.112514629128001E+08, -1.110756818475376E+08,
2459790.500000000, A.D. 2022-Jul-30 00:00:00.0000, 2.597669371358762E+08, -9.970415070970121E+07, -1.131409332650214E+08,
2459797.500000000, A.D. 2022-Aug-06 00:00:00.0000, 2.636483723262298E+08, -8.797821902818458E+07, -1.150034990741940E+08,
2459804.500000000, A.D. 2022-Aug-13 00:00:00.0000, 2.670596872749606E+08, -7.609534014613391E+07, -1.166609138113607E+08,
2459811.500000000, A.D. 2022-Aug-20 00:00:00.0000, 2.699967257565969E+08, -6.407725856615582E+07, -1.181110605844240E+08,
2459818.500000000, A.D. 2022-Aug-27 00:00:00.0000, 2.724561160306843E+08, -5.194576205391338E+07, -1.193521678663367E+08,
2459825.500000000, A.D. 2022-Sep-03 00:00:00.0000, 2.744352622171659E+08, -3.972265393409672E+07, -1.203828061248220E+08,
2459832.500000000, A.D. 2022-Sep-10 00:00:00.0000, 2.759323353808854E+08, -2.742972656114383E+07, -1.212018843274472E+08,
2459839.500000000, A.D. 2022-Sep-17 00:00:00.0000, 2.769462644239586E+08, -1.508873590379511E+07, -1.218086463539481E+08,
2459846.500000000, A.D. 2022-Sep-24 00:00:00.0000, 2.774767269089363E+08, -2.721377229115412E+06, -1.222026673514506E+08,
2459853.500000000, A.D. 2022-Oct-01 00:00:00.0000, 2.775241401063326E+08, 9.650738157833681E+06, -1.223838500782064E+08,
2459860.500000000, A.D. 2022-Oct-08 00:00:00.0000, 2.770896527152548E+08, 2.200610571107745E+07, -1.223524212454454E+08,
2459867.500000000, A.D. 2022-Oct-15 00:00:00.0000, 2.761751363630688E+08, 3.432335125731664E+07, -1.221089276893536E+08,
2459874.500000000, A.D. 2022-Oct-22 00:00:00.0000, 2.747831747457188E+08, 4.658125381906208E+07, -1.216542323359356E+08,
2459881.500000000, A.D. 2022-Oct-29 00:00:00.0000, 2.729170529374678E+08, 5.875876511884393E+07, -1.209895104190965E+08,
2459888.500000000, A.D. 2022-Nov-05 00:00:00.0000, 2.705807489844572E+08, 7.083502857429491E+07, -1.201162459287528E+08,
2459895.500000000, A.D. 2022-Nov-12 00:00:00.0000, 2.677789258301725E+08, 8.278939912353788E+07, -1.190362280132588E+08,
2459902.500000000, A.D. 2022-Nov-19 00:00:00.0000, 2.645169228638755E+08, 9.460146299641274E+07, -1.177515473555838E+08,
2459909.500000000, A.D. 2022-Nov-26 00:00:00.0000, 2.608007473586899E+08, 1.062510571017868E+08, -1.162645925836662E+08,
2459916.500000000, A.D. 2022-Dec-03 00:00:00.0000, 2.566370659636766E+08, 1.177182880860357E+08, -1.145780467315047E+08,
2459923.500000000, A.D. 2022-Dec-10 00:00:00.0000, 2.520331962880649E+08, 1.289835511472400E+08, -1.126948837511490E+08,
2459930.500000000, A.D. 2022-Dec-17 00:00:00.0000, 2.469970985897681E+08, 1.400275486451955E+08, -1.106183650751594E+08,
2459937.500000000, A.D. 2022-Dec-24 00:00:00.0000, 2.415373676606225E+08, 1.508313085056767E+08, -1.083520362387781E+08,
2459944.500000000, A.D. 2022-Dec-31 00:00:00.0000, 2.356632252460369E+08, 1.613762025879094E+08, -1.058997235787257E+08,
2459951.500000000, A.D. 2023-Jan-07 00:00:00.0000, 2.293845130948073E+08, 1.716439660310819E+08, -1.032655309287535E+08,
2459958.500000000, A.D. 2023-Jan-14 00:00:00.0000, 2.227116846303598E+08, 1.816167181307981E+08, -1.004538360705112E+08,
2459965.500000000, A.D. 2023-Jan-21 00:00:00.0000, 2.156557945608943E+08, 1.912769816388942E+08, -9.746928712835285E+07,
2459972.500000000, A.D. 2023-Jan-28 00:00:00.0000, 2.082284900659886E+08, 2.006077003443268E+08, -9.431679925167397E+07,
2459979.500000000, A.D. 2023-Feb-04 00:00:00.0000, 2.004420033047211E+08, 2.095922580051766E+08, -9.100155129715331E+07,
2459986.500000000, A.D. 2023-Feb-11 00:00:00.0000, 1.923091433974558E+08, 2.182144984837273E+08, -8.752898233986771E+07,
2459993.500000000, A.D. 2023-Feb-18 00:00:00.0000, 1.838432877668538E+08, 2.264587463040473E+08, -8.390478805344345E+07,
2460000.500000000, A.D. 2023-Feb-25 00:00:00.0000, 1.750583730480854E+08, 2.343098275040986E+08, -8.013491697136395E+07,
2460007.500000000, A.D. 2023-Mar-04 00:00:00.0000, 1.659688856110345E+08, 2.417530908239038E+08, -7.622556660486284E+07,
2460014.500000000, A.D. 2023-Mar-11 00:00:00.0000, 1.565898516510424E+08, 2.487744292443224E+08, -7.218317938060577E+07,
2460021.500000000, A.D. 2023-Mar-18 00:00:00.0000, 1.469368268091440E+08, 2.553603018408031E+08, -6.801443836640015E+07,
2460028.500000000, A.D. 2023-Mar-25 00:00:00.0000, 1.370258854342135E+08, 2.614977559260511E+08, -6.372626277472219E+07,
2460035.500000000, A.D. 2023-Apr-01 00:00:00.0000, 1.268736098297295E+08, 2.671744499006159E+08, -5.932580322672664E+07,
2460042.500000000, A.D. 2023-Apr-08 00:00:00.0000, 1.164970788014993E+08, 2.723786780490392E+08, -5.482043659534784E+07,
2460049.500000000, A.D. 2023-Apr-15 00:00:00.0000, 1.059138530925699E+08, 2.770993961587937E+08, -5.021776026450121E+07,
2460056.500000000, A.D. 2023-Apr-22 00:00:00.0000, 9.514195941939835E+07, 2.813262448954375E+08, -4.552558617668594E+07,
2460063.500000000, A.D. 2023-Apr-29 00:00:00.0000, 8.419987576067485E+07, 2.850495731743137E+08, -4.075193469825210E+07,
2460070.500000000, A.D. 2023-May-06 00:00:00.0000, 7.310651604949819E+07, 2.882604632703114E+08, -3.590502795029570E+07,
2460077.500000000, A.D. 2023-May-13 00:00:00.0000, 6.188121319113699E+07, 2.909507567235072E+08, -3.099328254159813E+07,
2460084.500000000, A.D. 2023-May-20 00:00:00.0000, 5.054370053958398E+07, 2.931130804964939E+08, -2.602530172050966E+07,
2460091.500000000, A.D. 2023-May-27 00:00:00.0000, 3.911409192699063E+07, 2.947408732910366E+08, -2.100986692194878E+07,
2460098.500000000, A.D. 2023-Jun-03 00:00:00.0000, 2.761286020510017E+07, 2.958284119753382E+08, -1.595592866882952E+07,
2460105.500000000, A.D. 2023-Jun-10 00:00:00.0000, 1.606081422521899E+07, 2.963708380209487E+08, -1.087259678766766E+07,
2460112.500000000, A.D. 2023-Jun-17 00:00:00.0000, 4.479074250338565E+06, 2.963641837889180E+08, -5.769129908518240E+06,
2460119.500000000, A.D. 2023-Jun-24 00:00:00.0000, -7.110953973912530E+06, 2.958053986073964E+08, -6.549242322062850E+05,
2460126.500000000, A.D. 2023-Jul-01 00:00:00.0000, -1.868760632696490E+07, 2.946923753453018E+08, 4.460498519704461E+06,
2460133.500000000, A.D. 2023-Jul-08 00:00:00.0000, -3.022899035396098E+07, 2.930239781719992E+08, 9.567504230619177E+06,
2460140.500000000, A.D. 2023-Jul-15 00:00:00.0000, -4.171301958259077E+07, 2.908000685091809E+08, 1.465636051214340E+07,
2460147.500000000, A.D. 2023-Jul-22 00:00:00.0000, -5.311744867273762E+07, 2.880215279555728E+08, 1.971725145052955E+07,
$$EOE